{"type": "FeatureCollection", "features": [ {"type": "Feature", "properties": {"norad_id": 39620, "name": "COSMOS 2492 (754)", "group": "gnss", "lat": 19.3777279008751, "lon": -30.85756466908416, "alt_km": 19114.178534427632, "timestamp": "2025-12-23T20:42:37.317302+00:00", "meta": {"OBJECT_NAME": "COSMOS 2492 (754)", "OBJECT_ID": "2014-012A", "EPOCH": "2025-12-21T22:59:34.433088", "MEAN_MOTION": 2.13103396, "ECCENTRICITY": 0.00142426, "INCLINATION": 65.4026, "RA_OF_ASC_NODE": 319.9579, "ARG_OF_PERICENTER": 313.3292, "MEAN_ANOMALY": 46.5466, "EPHEMERIS_TYPE": 0, "CLASSIFICATION_TYPE": "U", "NORAD_CAT_ID": 39620, "ELEMENT_SET_NO": 999, "REV_AT_EPOCH": 9146, "BSTAR": 0, "MEAN_MOTION_DOT": -4.2e-07, "MEAN_MOTION_DDOT": 0}, "tle": {"line1": "1 39620U 14012A   25355.95803742 -.00000042  00000+0  00000+0 0  9991", "line2": "2 39620  65.4026 319.9579 0014242 313.3292  46.5466  2.13103396 91463"}}, "geometry": {"type": "Point", "coordinates": [-30.85756466908416, 19.3777279008751]}}, {"type": "Feature", "properties": {"norad_id": 39635, "name": "IRNSS-1B", "group": "gnss", "lat": -16.290493831619596, "lon": 94.9443481653566, "alt_km": 35728.34105184528, "timestamp": "2025-12-23T20:42:37.317314+00:00", "meta": {"OBJECT_NAME": "IRNSS-1B", "OBJECT_ID": "2014-017A", "EPOCH": "2025-12-22T18:17:38.465664", "MEAN_MOTION": 1.00271468, "ECCENTRICITY": 0.00185374, "INCLINATION": 29.2378, "RA_OF_ASC_NODE": 243.4218, "ARG_OF_PERICENTER": 174.8088, "MEAN_ANOMALY": 2.8747, "EPHEMERIS_TYPE": 0, "CLASSIFICATION_TYPE": "U", "NORAD_CAT_ID": 39635, "ELEMENT_SET_NO": 999, "REV_AT_EPOCH": 4302, "BSTAR": 0, "MEAN_MOTION_DOT": 1.47e-06, "MEAN_MOTION_DDOT": 0}, "tle": {"line1": "1 39635U 14017A   25356.76225076  .00000147  00000+0  00000+0 0  9995", "line2": "2 39635  29.2378 243.4218 0018537 174.8088   2.8747  1.00271468 43029"}}, "geometry": {"type": "Point", "coordinates": [94.9443481653566, -16.290493831619596]}}, {"type": "Feature", "properties": {"norad_id": 39727, "name": "LUCH 5V (SDCM/PRN 141)", "group": "gnss", "lat": 4.3276569041520485, "lon": 137.93461284840384, "alt_km": 35797.88349797503, "timestamp": "2025-12-23T20:42:37.317326+00:00", "meta": {"OBJECT_NAME": "LUCH 5V (SDCM/PRN 141)", "OBJECT_ID": "2014-023A", "EPOCH": "2025-12-23T06:44:08.107296", "MEAN_MOTION": 1.00275037, "ECCENTRICITY": 0.00037053, "INCLINATION": 4.6948, "RA_OF_ASC_NODE": 71.4501, "ARG_OF_PERICENTER": 214.003, "MEAN_ANOMALY": 2.3759, "EPHEMERIS_TYPE": 0, "CLASSIFICATION_TYPE": "U", "NORAD_CAT_ID": 39727, "ELEMENT_SET_NO": 999, "REV_AT_EPOCH": 4259, "BSTAR": 0, "MEAN_MOTION_DOT": -2.5e-06, "MEAN_MOTION_DDOT": 0}, "tle": {"line1": "1 39727U 14023A   25357.28064939 -.00000250  00000+0  00000+0 0  9997", "line2": "2 39727   4.6948  71.4501 0003705 214.0030   2.3759  1.00275037 42595"}}, "geometry": {"type": "Point", "coordinates": [137.93461284840384, 4.3276569041520485]}}, {"type": "Feature", "properties": {"norad_id": 39741, "name": "GPS BIIF-6  (PRN 06)", "group": "gnss", "lat": -52.375707224034734, "lon": -80.59132176686285, "alt_km": 20098.04052649612, "timestamp": "2025-12-23T20:42:37.317337+00:00", "meta": {"OBJECT_NAME": "GPS BIIF-6  (PRN 06)", "OBJECT_ID": "2014-026A", "EPOCH": "2025-12-21T23:12:34.799616", "MEAN_MOTION": 2.00560759, "ECCENTRICITY": 0.00394103, "INCLINATION": 56.58, "RA_OF_ASC_NODE": 338.4177, "ARG_OF_PERICENTER": 319.2097, "MEAN_ANOMALY": 40.4995, "EPHEMERIS_TYPE": 0, "CLASSIFICATION_TYPE": "U", "NORAD_CAT_ID": 39741, "ELEMENT_SET_NO": 999, "REV_AT_EPOCH": 8498, "BSTAR": 0, "MEAN_MOTION_DOT": -6.8e-07, "MEAN_MOTION_DDOT": 0}, "tle": {"line1": "1 39741U 14026A   25355.96706944 -.00000068  00000+0  00000+0 0  9995", "line2": "2 39741  56.5800 338.4177 0039410 319.2097  40.4995  2.00560759 84985"}}, "geometry": {"type": "Point", "coordinates": [-80.59132176686285, -52.375707224034734]}}, {"type": "Feature", "properties": {"norad_id": 40001, "name": "COSMOS 2500 (755)", "group": "gnss", "lat": -58.28644627662003, "lon": -172.37409249068745, "alt_km": 19118.812408485723, "timestamp": "2025-12-23T20:42:37.317349+00:00", "meta": {"OBJECT_NAME": "COSMOS 2500 (755)", "OBJECT_ID": "2014-032A", "EPOCH": "2025-12-21T04:35:55.026240", "MEAN_MOTION": 2.13106227, "ECCENTRICITY": 0.00077299, "INCLINATION": 65.3386, "RA_OF_ASC_NODE": 319.7453, "ARG_OF_PERICENTER": 219.3736, "MEAN_ANOMALY": 140.5635, "EPHEMERIS_TYPE": 0, "CLASSIFICATION_TYPE": "U", "NORAD_CAT_ID": 40001, "ELEMENT_SET_NO": 999, "REV_AT_EPOCH": 8966, "BSTAR": 0, "MEAN_MOTION_DOT": -4.7e-07, "MEAN_MOTION_DDOT": 0}, "tle": {"line1": "1 40001U 14032A   25355.19160910 -.00000047  00000+0  00000+0 0  9992", "line2": "2 40001  65.3386 319.7453 0007729 219.3736 140.5635  2.13106227 89663"}}, "geometry": {"type": "Point", "coordinates": [-172.37409249068745, -58.28644627662003]}}, {"type": "Feature", "properties": {"norad_id": 40105, "name": "GPS BIIF-7  (PRN 09)", "group": "gnss", "lat": -36.881391059952676, "lon": -53.182357488308995, "alt_km": 20210.316663519603, "timestamp": "2025-12-23T20:42:37.317364+00:00", "meta": {"OBJECT_NAME": "GPS BIIF-7  (PRN 09)", "OBJECT_ID": "2014-045A", "EPOCH": "2025-12-22T13:15:41.120928", "MEAN_MOTION": 2.00573178, "ECCENTRICITY": 0.00324213, "INCLINATION": 55.2347, "RA_OF_ASC_NODE": 95.5075, "ARG_OF_PERICENTER": 120.1432, "MEAN_ANOMALY": 240.1836, "EPHEMERIS_TYPE": 0, "CLASSIFICATION_TYPE": "U", "NORAD_CAT_ID": 40105, "ELEMENT_SET_NO": 999, "REV_AT_EPOCH": 8253, "BSTAR": 0, "MEAN_MOTION_DOT": 1e-08, "MEAN_MOTION_DDOT": 0}, "tle": {"line1": "1 40105U 14045A   25356.55255927  .00000001  00000+0  00000+0 0  9994", "line2": "2 40105  55.2347  95.5075 0032421 120.1432 240.1836  2.00573178 82539"}}, "geometry": {"type": "Point", "coordinates": [-53.182357488308995, -36.881391059952676]}}, {"type": "Feature", "properties": {"norad_id": 40128, "name": "GSAT0201 (GALILEO 5)", "group": "gnss", "lat": 49.04780768109094, "lon": 7.576249162010001, "alt_km": 20418.935051500124, "timestamp": "2025-12-23T20:42:37.317376+00:00", "meta": {"OBJECT_NAME": "GSAT0201 (GALILEO 5)", "OBJECT_ID": "2014-050A", "EPOCH": "2025-12-22T02:10:25.077792", "MEAN_MOTION": 1.85519674, "ECCENTRICITY": 0.16488719, "INCLINATION": 49.0659, "RA_OF_ASC_NODE": 280.6824, "ARG_OF_PERICENTER": 172.6344, "MEAN_ANOMALY": 190.1824, "EPHEMERIS_TYPE": 0, "CLASSIFICATION_TYPE": "U", "NORAD_CAT_ID": 40128, "ELEMENT_SET_NO": 999, "REV_AT_EPOCH": 7503, "BSTAR": 0, "MEAN_MOTION_DOT": -3.7e-07, "MEAN_MOTION_DDOT": 0}, "tle": {"line1": "1 40128U 14050A   25356.09056803 -.00000037  00000+0  00000+0 0  9996", "line2": "2 40128  49.0659 280.6824 1648871 172.6344 190.1824  1.85519674 75038"}}, "geometry": {"type": "Point", "coordinates": [7.576249162010001, 49.04780768109094]}}, {"type": "Feature", "properties": {"norad_id": 40129, "name": "GSAT0202 (GALILEO 6)", "group": "gnss", "lat": -35.66353619636112, "lon": -118.73967550861447, "alt_km": 24518.47054894102, "timestamp": "2025-12-23T20:42:37.317387+00:00", "meta": {"OBJECT_NAME": "GSAT0202 (GALILEO 6)", "OBJECT_ID": "2014-050B", "EPOCH": "2025-12-18T13:46:22.484640", "MEAN_MOTION": 1.85520466, "ECCENTRICITY": 0.16491259, "INCLINATION": 49.0858, "RA_OF_ASC_NODE": 279.9095, "ARG_OF_PERICENTER": 173.2442, "MEAN_ANOMALY": 189.3393, "EPHEMERIS_TYPE": 0, "CLASSIFICATION_TYPE": "U", "NORAD_CAT_ID": 40129, "ELEMENT_SET_NO": 999, "REV_AT_EPOCH": 7713, "BSTAR": 0, "MEAN_MOTION_DOT": -5.9e-07, "MEAN_MOTION_DDOT": 0}, "tle": {"line1": "1 40129U 14050B   25352.57387135 -.00000059  00000+0  00000+0 0  9995", "line2": "2 40129  49.0858 279.9095 1649125 173.2442 189.3393  1.85520466 77135"}}, "geometry": {"type": "Point", "coordinates": [-118.73967550861447, -35.66353619636112]}}, {"type": "Feature", "properties": {"norad_id": 40269, "name": "IRNSS-1C", "group": "gnss", "lat": 3.415249162746706, "lon": 126.27309091218281, "alt_km": 35720.84826458052, "timestamp": "2025-12-23T20:42:37.317399+00:00", "meta": {"OBJECT_NAME": "IRNSS-1C", "OBJECT_ID": "2014-061A", "EPOCH": "2025-12-22T20:24:27.813024", "MEAN_MOTION": 1.00273611, "ECCENTRICITY": 0.0018078, "INCLINATION": 6.0675, "RA_OF_ASC_NODE": 92.4189, "ARG_OF_PERICENTER": 1.0626, "MEAN_ANOMALY": 27.2859, "EPHEMERIS_TYPE": 0, "CLASSIFICATION_TYPE": "U", "NORAD_CAT_ID": 40269, "ELEMENT_SET_NO": 999, "REV_AT_EPOCH": 4092, "BSTAR": 0, "MEAN_MOTION_DOT": -1.44e-06, "MEAN_MOTION_DDOT": 0}, "tle": {"line1": "1 40269U 14061A   25356.85032191 -.00000144  00000+0  00000+0 0  9991", "line2": "2 40269   6.0675  92.4189 0018078   1.0626  27.2859  1.00273611 40928"}}, "geometry": {"type": "Point", "coordinates": [126.27309091218281, 3.415249162746706]}}, {"type": "Feature", "properties": {"norad_id": 40294, "name": "GPS BIIF-8  (PRN 03)", "group": "gnss", "lat": -37.008958359857814, "lon": 8.252952505521113, "alt_km": 20254.02411828349, "timestamp": "2025-12-23T20:42:37.317411+00:00", "meta": {"OBJECT_NAME": "GPS BIIF-8  (PRN 03)", "OBJECT_ID": "2014-068A", "EPOCH": "2025-12-22T22:18:25.520256", "MEAN_MOTION": 2.00565523, "ECCENTRICITY": 0.00608321, "INCLINATION": 56.8652, "RA_OF_ASC_NODE": 37.752, "ARG_OF_PERICENTER": 68.9789, "MEAN_ANOMALY": 291.7406, "EPHEMERIS_TYPE": 0, "CLASSIFICATION_TYPE": "U", "NORAD_CAT_ID": 40294, "ELEMENT_SET_NO": 999, "REV_AT_EPOCH": 8167, "BSTAR": 0, "MEAN_MOTION_DOT": -4.8e-07, "MEAN_MOTION_DDOT": 0}, "tle": {"line1": "1 40294U 14068A   25356.92946204 -.00000048  00000+0  00000+0 0  9996", "line2": "2 40294  56.8652  37.7520 0060832  68.9789 291.7406  2.00565523 81672"}}, "geometry": {"type": "Point", "coordinates": [8.252952505521113, -37.008958359857814]}}]}